[{"OBJECT_NAME":"STARLINK-33539","OBJECT_ID":"2025-063P","EPOCH":"2026-03-09T23:46:06.068064","MEAN_MOTION":15.30206481,"ECCENTRICITY":0.00015583,"INCLINATION":53.1596,"RA_OF_ASC_NODE":61.1161,"ARG_OF_PERICENTER":114.0168,"MEAN_ANOMALY":246.0996,"EPHEMERIS_TYPE":0,"CLASSIFICATION_TYPE":"U","NORAD_CAT_ID":63376,"ELEMENT_SET_NO":999,"REV_AT_EPOCH":5461,"BSTAR":0.00077199675,"MEAN_MOTION_DOT":0.00022579,"MEAN_MOTION_DDOT":0},{"OBJECT_NAME":"KUIPER-00276","OBJECT_ID":"2026-030AG","EPOCH":"2026-03-09T22:00:01.999584","MEAN_MOTION":15.30162454,"ECCENTRICITY":0.00186471,"INCLINATION":51.8824,"RA_OF_ASC_NODE":218.7283,"ARG_OF_PERICENTER":66.9346,"MEAN_ANOMALY":101.1527,"EPHEMERIS_TYPE":0,"CLASSIFICATION_TYPE":"U","NORAD_CAT_ID":67794,"ELEMENT_SET_NO":999,"REV_AT_EPOCH":482,"BSTAR":0.0021152378,"MEAN_MOTION_DOT":0.00063116,"MEAN_MOTION_DDOT":0}]
